{"type": "FeatureCollection", "features": [{"type": "Feature", "properties": {"norad_id": 24876, "name": "GPS BIIR-2  (PRN 13)", "group": "gnss", "lat": 26.182867571821934, "lon": 124.84963151275853, "alt_km": 19945.031850587446, "timestamp": "2025-12-24T05:51:19.850787+00:00", "meta": {"OBJECT_NAME": "GPS BIIR-2  (PRN 13)", "OBJECT_ID": "1997-035A", "EPOCH": "2025-12-23T04:52:08.851872", "MEAN_MOTION": 2.00563705, "ECCENTRICITY": 0.0096844, "INCLINATION": 55.9001, "RA_OF_ASC_NODE": 105.4597, "ARG_OF_PERICENTER": 56.9573, "MEAN_ANOMALY": 303.9609, "EPHEMERIS_TYPE": 0, "CLASSIFICATION_TYPE": "U", "NORAD_CAT_ID": 24876, "ELEMENT_SET_NO": 999, "REV_AT_EPOCH": 20842, "BSTAR": 0, "MEAN_MOTION_DOT": 2e-07, "MEAN_MOTION_DDOT": 0}, "tle": {"line1": "1 24876U 97035A   25357.20288023  .00000020  00000+0  00000+0 0  9998", "line2": "2 24876  55.9001 105.4597 0096844  56.9573 303.9609  2.00563705208420"}}, "geometry": {"type": "Point", "coordinates": [124.84963151275853, 26.182867571821934]}}, {"type": "Feature", "properties": {"norad_id": 26360, "name": "GPS BIIR-4  (PRN 20)", "group": "gnss", "lat": 42.603164231201205, "lon": 166.3719291808381, "alt_km": 20226.36051925929, "timestamp": "2025-12-24T05:51:19.850834+00:00", "meta": {"OBJECT_NAME": "GPS BIIR-4  (PRN 20)", "OBJECT_ID": "2000-025A", "EPOCH": "2025-12-23T19:23:28.398048", "MEAN_MOTION": 2.00566749, "ECCENTRICITY": 0.00389017, "INCLINATION": 55.0517, "RA_OF_ASC_NODE": 26.3903, "ARG_OF_PERICENTER": 243.0445, "MEAN_ANOMALY": 286.8521, "EPHEMERIS_TYPE": 0, "CLASSIFICATION_TYPE": "U", "NORAD_CAT_ID": 26360, "ELEMENT_SET_NO": 999, "REV_AT_EPOCH": 18775, "BSTAR": 0, "MEAN_MOTION_DOT": -5.7e-07, "MEAN_MOTION_DDOT": 0}, "tle": {"line1": "1 26360U 00025A   25357.80796757 -.00000057  00000+0  00000+0 0  9996", "line2": "2 26360  55.0517  26.3903 0038901 243.0445 286.8521  2.00566749187757"}}, "geometry": {"type": "Point", "coordinates": [166.3719291808381, 42.603164231201205]}}, {"type": "Feature", "properties": {"norad_id": 26407, "name": "GPS BIIR-5  (PRN 22)", "group": "gnss", "lat": -28.065674961139774, "lon": -159.90355531482064, "alt_km": 19878.361330175587, "timestamp": "2025-12-24T05:51:19.850853+00:00", "meta": {"OBJECT_NAME": "GPS BIIR-5  (PRN 22)", "OBJECT_ID": "2000-040A", "EPOCH": "2025-12-23T19:23:16.859328", "MEAN_MOTION": 2.00568088, "ECCENTRICITY": 0.01254055, "INCLINATION": 54.8884, "RA_OF_ASC_NODE": 222.1289, "ARG_OF_PERICENTER": 301.9882, "MEAN_ANOMALY": 67.4958, "EPHEMERIS_TYPE": 0, "CLASSIFICATION_TYPE": "U", "NORAD_CAT_ID": 26407, "ELEMENT_SET_NO": 999, "REV_AT_EPOCH": 18643, "BSTAR": 0, "MEAN_MOTION_DOT": 6.5e-07, "MEAN_MOTION_DDOT": 0}, "tle": {"line1": "1 26407U 00040A   25357.80783402  .00000065  00000+0  00000+0 0  9996", "line2": "2 26407  54.8884 222.1289 0125405 301.9882  67.4958  2.00568088186430"}}, "geometry": {"type": "Point", "coordinates": [-159.90355531482064, -28.065674961139774]}}, {"type": "Feature", "properties": {"norad_id": 27663, "name": "GPS BIIR-8  (PRN 16)", "group": "gnss", "lat": 53.26710666706711, "lon": -28.36958816572608, "alt_km": 19917.579183371636, "timestamp": "2025-12-24T05:51:19.850868+00:00", "meta": {"OBJECT_NAME": "GPS BIIR-8  (PRN 16)", "OBJECT_ID": "2003-005A", "EPOCH": "2025-12-23T07:51:19.360224", "MEAN_MOTION": 2.00570305, "ECCENTRICITY": 0.0147825, "INCLINATION": 54.921, "RA_OF_ASC_NODE": 221.9571, "ARG_OF_PERICENTER": 51.9554, "MEAN_ANOMALY": 106.5355, "EPHEMERIS_TYPE": 0, "CLASSIFICATION_TYPE": "U", "NORAD_CAT_ID": 27663, "ELEMENT_SET_NO": 999, "REV_AT_EPOCH": 16778, "BSTAR": 0, "MEAN_MOTION_DOT": 6.6e-07, "MEAN_MOTION_DDOT": 0}, "tle": {"line1": "1 27663U 03005A   25357.32730741  .00000066  00000+0  00000+0 0  9991", "line2": "2 27663  54.9210 221.9571 0147825  51.9554 106.5355  2.00570305167786"}}, "geometry": {"type": "Point", "coordinates": [-28.36958816572608, 53.26710666706711]}}, {"type": "Feature", "properties": {"norad_id": 28190, "name": "GPS BIIR-11 (PRN 19)", "group": "gnss", "lat": -53.7550191875241, "lon": 175.55130944945245, "alt_km": 20195.62349396106, "timestamp": "2025-12-24T05:51:19.850881+00:00", "meta": {"OBJECT_NAME": "GPS BIIR-11 (PRN 19)", "OBJECT_ID": "2004-009A", "EPOCH": "2025-12-22T01:59:41.237952", "MEAN_MOTION": 2.00560473, "ECCENTRICITY": 0.01084919, "INCLINATION": 54.9772, "RA_OF_ASC_NODE": 282.8425, "ARG_OF_PERICENTER": 167.7907, "MEAN_ANOMALY": 330.6754, "EPHEMERIS_TYPE": 0, "CLASSIFICATION_TYPE": "U", "NORAD_CAT_ID": 28190, "ELEMENT_SET_NO": 999, "REV_AT_EPOCH": 15939, "BSTAR": 0, "MEAN_MOTION_DOT": -2.4e-07, "MEAN_MOTION_DDOT": 0}, "tle": {"line1": "1 28190U 04009A   25356.08311618 -.00000024  00000+0  00000+0 0  9997", "line2": "2 28190  54.9772 282.8425 0108491 167.7907 330.6754  2.00560473159399"}}, "geometry": {"type": "Point", "coordinates": [175.55130944945245, -53.7550191875241]}}, {"type": "Feature", "properties": {"norad_id": 28474, "name": "GPS BIIR-13 (PRN 02)", "group": "gnss", "lat": -32.25284413705871, "lon": -54.05456346369675, "alt_km": 19737.284695353665, "timestamp": "2025-12-24T05:51:19.850894+00:00", "meta": {"OBJECT_NAME": "GPS BIIR-13 (PRN 02)", "OBJECT_ID": "2004-045A", "EPOCH": "2025-12-22T13:16:56.089344", "MEAN_MOTION": 2.00570004, "ECCENTRICITY": 0.01709371, "INCLINATION": 55.2358, "RA_OF_ASC_NODE": 332.0112, "ARG_OF_PERICENTER": 309.6885, "MEAN_ANOMALY": 228.7623, "EPHEMERIS_TYPE": 0, "CLASSIFICATION_TYPE": "U", "NORAD_CAT_ID": 28474, "ELEMENT_SET_NO": 999, "REV_AT_EPOCH": 15488, "BSTAR": 0, "MEAN_MOTION_DOT": -6.6e-07, "MEAN_MOTION_DDOT": 0}, "tle": {"line1": "1 28474U 04045A   25356.55342696 -.00000066  00000+0  00000+0 0  9990", "line2": "2 28474  55.2358 332.0112 0170937 309.6885 228.7623  2.00570004154887"}}, "geometry": {"type": "Point", "coordinates": [-54.05456346369675, -32.25284413705871]}}, {"type": "Feature", "properties": {"norad_id": 28874, "name": "GPS BIIRM-1 (PRN 17)", "group": "gnss", "lat": -54.255446439594216, "lon": -156.01610717042973, "alt_km": 19851.22885583106, "timestamp": "2025-12-24T05:51:19.850907+00:00", "meta": {"OBJECT_NAME": "GPS BIIRM-1 (PRN 17)", "OBJECT_ID": "2005-038A", "EPOCH": "2025-12-23T15:29:31.408224", "MEAN_MOTION": 2.005777, "ECCENTRICITY": 0.01313078, "INCLINATION": 55.0222, "RA_OF_ASC_NODE": 280.2619, "ARG_OF_PERICENTER": 293.8052, "MEAN_ANOMALY": 272.4454, "EPHEMERIS_TYPE": 0, "CLASSIFICATION_TYPE": "U", "NORAD_CAT_ID": 28874, "ELEMENT_SET_NO": 999, "REV_AT_EPOCH": 14831, "BSTAR": 0, "MEAN_MOTION_DOT": -2e-07, "MEAN_MOTION_DDOT": 0}, "tle": {"line1": "1 28874U 05038A   25357.64550241 -.00000020  00000+0  00000+0 0  9995", "line2": "2 28874  55.0222 280.2619 0131307 293.8052 272.4454  2.00577700148312"}}, "geometry": {"type": "Point", "coordinates": [-156.01610717042973, -54.255446439594216]}}, {"type": "Feature", "properties": {"norad_id": 28899, "name": "INMARSAT 4-F2 (SOUTHPAN/PRN 122)", "group": "gnss", "lat": -4.797483867592874, "lon": -35.587320925527, "alt_km": 35780.53619351566, "timestamp": "2025-12-24T05:51:19.850928+00:00", "meta": {"OBJECT_NAME": "INMARSAT 4-F2 (SOUTHPAN/PRN 122)", "OBJECT_ID": "2005-044A", "EPOCH": "2025-12-23T20:39:46.164672", "MEAN_MOTION": 1.00271168, "ECCENTRICITY": 0.00024131, "INCLINATION": 4.8647, "RA_OF_ASC_NODE": 43.7095, "ARG_OF_PERICENTER": 229.287, "MEAN_ANOMALY": 273.0944, "EPHEMERIS_TYPE": 0, "CLASSIFICATION_TYPE": "U", "NORAD_CAT_ID": 28899, "ELEMENT_SET_NO": 999, "REV_AT_EPOCH": 7376, "BSTAR": 0, "MEAN_MOTION_DOT": -2.42e-06, "MEAN_MOTION_DDOT": 0}, "tle": {"line1": "1 28899U 05044A   25357.86095098 -.00000242  00000+0  00000+0 0  9993", "line2": "2 28899   4.8647  43.7095 0002413 229.2870 273.0944  1.00271168 73763"}}, "geometry": {"type": "Point", "coordinates": [-35.587320925527, -4.797483867592874]}}, {"type": "Feature", "properties": {"norad_id": 29486, "name": "GPS BIIRM-2 (PRN 31)", "group": "gnss", "lat": -1.299118850174083, "lon": -20.80367954172804, "alt_km": 20362.19462566334, "timestamp": "2025-12-24T05:51:19.850940+00:00", "meta": {"OBJECT_NAME": "GPS BIIRM-2 (PRN 31)", "OBJECT_ID": "2006-042A", "EPOCH": "2025-12-23T12:09:08.290944", "MEAN_MOTION": 2.00553717, "ECCENTRICITY": 0.01072791, "INCLINATION": 54.6953, "RA_OF_ASC_NODE": 158.3137, "ARG_OF_PERICENTER": 52.2028, "MEAN_ANOMALY": 315.7837, "EPHEMERIS_TYPE": 0, "CLASSIFICATION_TYPE": "U", "NORAD_CAT_ID": 29486, "ELEMENT_SET_NO": 999, "REV_AT_EPOCH": 14087, "BSTAR": 0, "MEAN_MOTION_DOT": 8.4e-07, "MEAN_MOTION_DDOT": 0}, "tle": {"line1": "1 29486U 06042A   25357.50634596  .00000084  00000+0  00000+0 0  9991", "line2": "2 29486  54.6953 158.3137 0107279  52.2028 315.7837  2.00553717140870"}}, "geometry": {"type": "Point", "coordinates": [-20.80367954172804, -1.299118850174083]}}, {"type": "Feature", "properties": {"norad_id": 29601, "name": "GPS BIIRM-3 (PRN 12)", "group": "gnss", "lat": -44.85440229045555, "lon": 85.20835731362591, "alt_km": 20392.122735521087, "timestamp": "2025-12-24T05:51:19.850952+00:00", "meta": {"OBJECT_NAME": "GPS BIIRM-3 (PRN 12)", "OBJECT_ID": "2006-052A", "EPOCH": "2025-12-22T22:00:58.169952", "MEAN_MOTION": 2.00574295, "ECCENTRICITY": 0.0087996, "INCLINATION": 54.9685, "RA_OF_ASC_NODE": 220.9942, "ARG_OF_PERICENTER": 87.562, "MEAN_ANOMALY": 273.5353, "EPHEMERIS_TYPE": 0, "CLASSIFICATION_TYPE": "U", "NORAD_CAT_ID": 29601, "ELEMENT_SET_NO": 999, "REV_AT_EPOCH": 13987, "BSTAR": 0, "MEAN_MOTION_DOT": 6.8e-07, "MEAN_MOTION_DDOT": 0}, "tle": {"line1": "1 29601U 06052A   25356.91733993  .00000068  00000+0  00000+0 0  9998", "line2": "2 29601  54.9685 220.9942 0087996  87.5620 273.5353  2.00574295139872"}}, "geometry": {"type": "Point", "coordinates": [85.20835731362591, -44.85440229045555]}}]}